NORAD_CAT_ID,OBJECT_NAME,OBJECT_TYPE,EPOCH,MEAN_MOTION,ECCENTRICITY,INCLINATION,RA_OF_ASC_NODE,ARG_OF_PERICENTER,MEAN_ANOMALY,BSTAR,MEAN_MOTION_DOT,MEAN_MOTION_DDOT,TLE_LINE0,TLE_LINE1,TLE_LINE2,SEMIMAJOR_AXIS,PERIOD,APOGEE,PERIGEE,DECAYED
53821.0,STARLINK-4752,PAYLOAD,2024-07-04 22:53:07,15.08833818,0.0001372,53.2169,119.6104,88.2369,271.878,5.8061e-05,6.36e-06,0.0,0 STARLINK-4752,1 53821U 22114D   24186.95355746  .00000636  00000-0  58061-4 0  9993,2 53821  53.2169 119.6104 0001372  88.2369 271.8780 15.08833818101109,6917.899,95.438,540.713,538.815,0.0
53821.0,STARLINK-4752,PAYLOAD,2024-07-05 05:14:39,15.08837437,0.0001391,53.2171,118.4204,91.454,268.6611,5.7518e-05,6.28e-06,0.0,0 STARLINK-4752,1 53821U 22114D   24187.21851567  .00000628  00000-0  57518-4 0  9992,2 53821  53.2171 118.4204 0001391  91.4540 268.6611 15.08837437100600,6917.888,95.438,540.716,538.791,0.0
53821.0,STARLINK-4752,PAYLOAD,2024-07-05 22:43:54,15.08837384,0.0001413,53.2172,115.1488,93.9016,266.2138,2.1124e-05,4.8e-07,0.0,0 STARLINK-4752,1 53821U 22114D   24187.94715789  .00000048  00000-0  21124-4 0  9997,2 53821  53.2172 115.1488 0001413  93.9016 266.2138 15.08837384101250,6917.888,95.438,540.731,538.776,0.0
53821.0,STARLINK-4752,PAYLOAD,2024-07-06 05:05:27,15.08837957,0.0001392,53.2169,113.9605,89.1728,270.9423,1.4324e-05,-6e-07,0.0,0 STARLINK-4752,1 53821U 22114D   24188.21211831 -.00000060  00000-0  14324-4 0  9996,2 53821  53.2169 113.9605 0001392  89.1728 270.9423 15.08837957101295,6917.887,95.438,540.715,538.789,0.0
53821.0,STARLINK-4752,PAYLOAD,2024-07-06 19:23:55,15.0883531,0.0001366,53.2165,111.2841,88.7649,271.3499,-7.0081e-06,-3.99e-06,0.0,0 STARLINK-4752,1 53821U 22114D   24188.80828130 -.00000399  00000-0 -70081-5 0  9996,2 53821  53.2165 111.2841 0001366  88.7649 271.3499 15.08835310100841,6917.895,95.438,540.705,538.815,0.0
53821.0,STARLINK-4752,PAYLOAD,2024-07-06 22:34:41,15.08835169,0.0001371,53.2166,110.6893,88.9115,271.2034,-8.7443e-06,-4.27e-06,0.0,0 STARLINK-4752,1 53821U 22114D   24188.94076172 -.00000427  00000-0 -87443-5 0  9994,2 53821  53.2166 110.6893 0001371  88.9115 271.2034 15.08835169101407,6917.895,95.438,540.709,538.812,0.0
53821.0,STARLINK-4752,PAYLOAD,2024-07-07 04:56:14,15.08835408,0.0001319,53.2165,109.4996,87.0642,273.0501,-3.5487e-05,-8.53e-06,0.0,0 STARLINK-4752,1 53821U 22114D   24189.20572316 -.00000853  00000-0 -35487-4 0  9998,2 53821  53.2165 109.4996 0001319  87.0642 273.0501 15.08835408101442,6917.894,95.438,540.672,538.847,0.0
53821.0,STARLINK-4752,PAYLOAD,2024-07-08 01:36:15,15.08836069,0.0001314,53.217,105.6335,85.1047,275.0095,9.7391e-06,-1.33e-06,0.0,0 STARLINK-4752,1 53821U 22114D   24190.06684333 -.00000133  00000-0  97391-5 0  9990,2 53821  53.2170 105.6335 0001314  85.1047 275.0095 15.08836069101035,6917.892,95.438,540.666,538.848,0.0
53821.0,STARLINK-4752,PAYLOAD,2024-07-08 11:08:33,15.0883822,0.0001306,53.2169,103.8493,84.386,275.7281,2.7553e-05,1.51e-06,0.0,0 STARLINK-4752,1 53821U 22114D   24190.46428197  .00000151  00000-0  27553-4 0  9999,2 53821  53.2169 103.8493 0001306  84.3860 275.7281 15.08838220101634,6917.886,95.438,540.654,538.847,0.0
53821.0,STARLINK-4752,PAYLOAD,2024-07-08 22:16:16,15.08833774,0.0001322,53.2173,101.7684,88.8373,271.277,2.1607e-05,5.6e-07,0.0,0 STARLINK-4752,1 53821U 22114D   24190.92796602  .00000056  00000-0  21607-4 0  9997,2 53821  53.2173 101.7684 0001322  88.8373 271.2770 15.08833774101705,6917.899,95.438,540.679,538.85,0.0
53821.0,STARLINK-4752,PAYLOAD,2024-07-09 03:02:25,15.08836508,0.0001352,53.2175,100.8767,90.1947,269.92,4.1492e-05,3.72e-06,0.0,0 STARLINK-4752,1 53821U 22114D   24191.12668426  .00000372  00000-0  41492-4 0  9997,2 53821  53.2175 100.8767 0001352  90.1947 269.9200 15.08836508101198,6917.891,95.438,540.691,538.821,0.0
53821.0,STARLINK-4752,PAYLOAD,2024-07-09 10:59:21,15.08838748,0.0001346,53.2175,99.3897,88.0078,272.1069,4.9544e-05,5.01e-06,0.0,0 STARLINK-4752,1 53821U 22114D   24191.45788290  .00000501  00000-0  49544-4 0  9995,2 53821  53.2175  99.3897 0001346  88.0078 272.1069 15.08838748101780,6917.884,95.438,540.68,538.818,0.0
53821.0,STARLINK-4752,PAYLOAD,2024-07-09 22:07:03,15.08835417,0.0001371,53.2178,97.3083,88.5719,271.543,6.5622e-06,-1.83e-06,0.0,0 STARLINK-4752,1 53821U 22114D   24191.92156731 -.00000183  00000-0  65622-5 0  9999,2 53821  53.2178  97.3083 0001371  88.5719 271.5430 15.08835417101856,6917.894,95.438,540.708,538.811,0.0
53821.0,STARLINK-4752,PAYLOAD,2024-07-10 10:50:08,15.08840368,0.0001386,53.2176,94.9294,86.2832,273.8318,2.8343e-05,1.63e-06,0.0,0 STARLINK-4752,1 53821U 22114D   24192.45148390  .00000163  00000-0  28343-4 0  9995,2 53821  53.2176  94.9294 0001386  86.2832 273.8318 15.08840368101398,6917.879,95.438,540.703,538.785,0.0
53821.0,STARLINK-4752,PAYLOAD,2024-07-10 21:57:50,15.08838555,0.0001437,53.2179,92.8478,86.3015,273.8142,2.5449e-05,1.17e-06,0.0,0 STARLINK-4752,1 53821U 22114D   24192.91516517  .00000117  00000-0  25449-4 0  9999,2 53821  53.2179  92.8478 0001437  86.3015 273.8142 15.08838555102002,6917.885,95.438,540.744,538.756,0.0
53821.0,STARLINK-4752,PAYLOAD,2024-07-11 02:43:59,15.08840823,0.0001402,53.2176,91.9557,86.5108,273.6045,2.5878e-05,1.24e-06,0.0,0 STARLINK-4752,1 53821U 22114D   24193.11388360  .00000124  00000-0  25878-4 0  9999,2 53821  53.2176  91.9557 0001402  86.5108 273.6045 15.08840823102038,6917.878,95.438,540.713,538.773,0.0
53821.0,STARLINK-4752,PAYLOAD,2024-07-12 10:31:42,15.08840931,0.000137,53.2178,86.0075,88.9139,271.201,1.7454e-05,-1e-07,0.0,0 STARLINK-4752,1 53821U 22114D   24194.43868280 -.00000010  00000-0  17454-4 0  9995,2 53821  53.2178  86.0075 0001370  88.9139 271.2010 15.08840931101691,6917.878,95.437,540.69,538.795,0.0
53821.0,STARLINK-4752,PAYLOAD,2024-07-12 21:39:24,15.08834412,0.0001435,53.2177,83.9273,87.2304,272.8853,-2.7368e-05,-7.23e-06,0.0,0 STARLINK-4752,1 53821U 22114D   24194.90236925 -.00000723  00000-0 -27368-4 0  9999,2 53821  53.2177  83.9273 0001435  87.2304 272.8853 15.08834412101761,6917.897,95.438,540.755,538.77,0.0
53821.0,STARLINK-4752,PAYLOAD,2024-07-12 23:14:47,15.08836528,0.0001248,53.2171,83.6287,107.6829,252.4299,-2.7733e-05,-7.29e-06,0.0,0 STARLINK-4752,1 53821U 22114D   24194.96860660 -.00000729  00000-0 -27733-4 0  9996,2 53821  53.2171  83.6287 0001248 107.6829 252.4299 15.08836528102318,6917.891,95.438,540.619,538.893,0.0
53821.0,STARLINK-4752,PAYLOAD,2024-07-13 23:05:34,15.08838444,0.0001324,53.2178,79.1702,93.7327,266.3816,1.5831e-05,-3.6e-07,0.0,0 STARLINK-4752,1 53821U 22114D   24195.96220628 -.00000036  00000-0  15831-4 0  9997,2 53821  53.2178  79.1702 0001324  93.7327 266.3816 15.08838444102464,6917.885,95.438,540.666,538.834,0.0
53821.0,STARLINK-4752,PAYLOAD,2024-07-14 02:16:20,15.08839732,0.0001286,53.2173,78.5751,92.9901,267.1238,1.9814e-05,2.7e-07,0.0,0 STARLINK-4752,1 53821U 22114D   24196.09468533  .00000027  00000-0  19814-4 0  9995,2 53821  53.2173  78.5751 0001286  92.9901 267.1238 15.08839732101942,6917.881,95.438,540.636,538.857,0.0
53821.0,STARLINK-4752,PAYLOAD,2024-07-14 21:20:58,15.08835628,0.0001255,53.2172,75.0058,90.4933,269.6203,4.334e-05,4.02e-06,0.0,0 STARLINK-4752,1 53821U 22114D   24196.88956801  .00000402  00000-0  43340-4 0  9990,2 53821  53.2172  75.0058 0001255  90.4933 269.6203 15.08835628102600,6917.894,95.438,540.627,538.891,0.0
53821.0,STARLINK-4752,PAYLOAD,2024-07-14 22:56:21,15.08836031,0.0001246,53.2171,74.7086,90.4492,269.6643,4.5498e-05,4.36e-06,0.0,0 STARLINK-4752,1 53821U 22114D   24196.95580785  .00000436  00000-0  45498-4 0  9995,2 53821  53.2171  74.7086 0001246  90.4492 269.6643 15.08836031102614,6917.893,95.438,540.619,538.896,0.0
53821.0,STARLINK-4752,PAYLOAD,2024-07-15 21:11:46,15.08834752,0.0001239,53.2172,70.5457,89.6518,270.4617,-1.8511e-05,-5.82e-06,0.0,0 STARLINK-4752,1 53821U 22114D   24197.88317329 -.00000582  00000-0 -18511-4 0  9990,2 53821  53.2172  70.5457 0001239  89.6518 270.4617 15.08834752102217,6917.896,95.438,540.619,538.904,0.0
53821.0,STARLINK-4752,PAYLOAD,2024-07-15 22:47:09,15.08833884,0.0001242,53.2171,70.2481,89.0449,271.0685,-2.4138e-05,-6.72e-06,0.0,0 STARLINK-4752,1 53821U 22114D   24197.94941422 -.00000672  00000-0 -24138-4 0  9996,2 53821  53.2171  70.2481 0001242  89.0449 271.0685 15.08833884102768,6917.899,95.438,540.623,538.905,0.0
53821.0,STARLINK-4752,PAYLOAD,2024-07-16 22:37:56,15.08839905,0.0001261,53.2175,65.7874,83.3077,276.8059,3.6966e-05,3e-06,0.0,0 STARLINK-4752,1 53821U 22114D   24198.94301057  .00000300  00000-0  36966-4 0  9999,2 53821  53.2175  65.7874 0001261  83.3077 276.8059 15.08839905102917,6917.881,95.438,540.618,538.873,0.0
53821.0,STARLINK-4752,PAYLOAD,2024-07-17 00:13:19,15.08840412,0.0001275,53.2176,65.4904,85.3176,274.7962,4.0971e-05,3.64e-06,0.0,0 STARLINK-4752,1 53821U 22114D   24199.00925011  .00000364  00000-0  40971-4 0  9990,2 53821  53.2176  65.4904 0001275  85.3176 274.7962 15.08840412102382,6917.879,95.438,540.626,538.862,0.0
53821.0,STARLINK-4752,PAYLOAD,2024-07-17 08:10:14,15.08842531,0.0001281,53.2175,64.0032,82.6879,277.4258,6.389e-05,7.29e-06,0.0,0 STARLINK-4752,1 53821U 22114D   24199.34044777  .00000729  00000-0  63890-4 0  9998,2 53821  53.2175  64.0032 0001281  82.6879 277.4258 15.08842531102972,6917.873,95.437,540.624,538.851,0.0
53821.0,STARLINK-4752,PAYLOAD,2024-07-17 20:53:20,15.08835761,0.0001357,53.218,61.6236,79.6293,280.4852,2.1047e-05,4.7e-07,0.0,0 STARLINK-4752,1 53821U 22114D   24199.87037538  .00000047  00000-0  21047-4 0  9994,2 53821  53.2180  61.6236 0001357  79.6293 280.4852 15.08835761102518,6917.893,95.438,540.697,538.82,0.0
53821.0,STARLINK-4752,PAYLOAD,2024-07-17 22:28:43,15.08836142,0.0001351,53.218,61.3262,79.2623,280.8521,2.3055e-05,7.9e-07,0.0,0 STARLINK-4752,1 53821U 22114D   24199.93661522  .00000079  00000-0  23055-4 0  9993,2 53821  53.2180  61.3262 0001351  79.2623 280.8521 15.08836142103063,6917.892,95.438,540.692,538.823,0.0
